start=new Date('2023-01-14T00:00:00.000Z').valueOf();
sats=[{"REF_FRAME":"TEME","PERIAPSIS":"538.799","MEAN_ELEMENT_THEORY":"SGP4","MEAN_MOTION_DDOT":"0.0000000000000","SEMIMAJOR_AXIS":"6917.873","EPHEMERIS_TYPE":"0","ELEMENT_SET_NO":"999","MEAN_ANOMALY":"264.4973","ARG_OF_PERICENTER":"95.6174","RA_OF_ASC_NODE":"333.4640","CENTER_NAME":"EARTH","RCS_SIZE":"LARGE","ECCENTRICITY":"0.00013570","TIME_SYSTEM":"UTC","GP_ID":"222943478","BSTAR":"0.00009047700000","TLE_LINE1":"1 53244U 22086C   23013.17658188  .00001152  00000-0  90477-4 0  9999","REV_AT_EPOCH":"2740","OBJECT_NAME":"STARLINK-4125","CLASSIFICATION_TYPE":"U","LAUNCH_DATE":"2022-07-24","COUNTRY_CODE":"US","APOAPSIS":"540.677","TLE_LINE2":"2 53244  53.2183 333.4640 0001357  95.6174 264.4973 15.08842384 27404","PERIOD":"95.437","OBJECT_ID":"2022-086C","MEAN_MOTION_DOT":"0.00001152","NORAD_CAT_ID":"53244","INCLINATION":"53.2183","MEAN_MOTION":"15.08842384","EPOCH":"2023-01-13T04:14:16.674432","OBJECT_TYPE":"PAYLOAD","SITE":"AFETR","FILE":"3743417","DECAY_DATE":null},{"MEAN_ANOMALY":"295.9321","ARG_OF_PERICENTER":"64.1900","RA_OF_ASC_NODE":"330.1587","EPHEMERIS_TYPE":"0","SEMIMAJOR_AXIS":"6917.859","MEAN_MOTION_DDOT":"0.0000000000000","ELEMENT_SET_NO":"999","MEAN_ELEMENT_THEORY":"SGP4","REF_FRAME":"TEME","PERIAPSIS":"538.194","TIME_SYSTEM":"UTC","ECCENTRICITY":"0.00022120","RCS_SIZE":"LARGE","CENTER_NAME":"EARTH","APOAPSIS":"541.255","COUNTRY_CODE":"US","LAUNCH_DATE":"2022-07-24","TLE_LINE1":"1 53245U 22086D   23013.91258455  .00007927  00000-0  51550-3 0  9999","OBJECT_NAME":"STARLINK-4124","CLASSIFICATION_TYPE":"U","REV_AT_EPOCH":"2753","BSTAR":"0.00051550000000","GP_ID":"222976495","SITE":"AFETR","FILE":"3743722","DECAY_DATE":null,"EPOCH":"2023-01-13T21:54:07.305120","MEAN_MOTION":"15.08846846","OBJECT_TYPE":"PAYLOAD","INCLINATION":"53.2186","PERIOD":"95.437","TLE_LINE2":"2 53245  53.2186 330.1587 0002212  64.1900 295.9321 15.08846846 27538","MEAN_MOTION_DOT":"0.00007927","OBJECT_ID":"2022-086D","NORAD_CAT_ID":"53245"},{"COUNTRY_CODE":"US","LAUNCH_DATE":"2022-07-24","APOAPSIS":"541.067","BSTAR":"0.00001690200000","GP_ID":"222975780","CLASSIFICATION_TYPE":"U","REV_AT_EPOCH":"2640","OBJECT_NAME":"STARLINK-4131","TLE_LINE1":"1 53246U 22086E   23013.90890383 -.00000019  00000-0  16902-4 0  9990","OBJECT_TYPE":"PAYLOAD","EPOCH":"2023-01-13T21:48:49.290912","MEAN_MOTION":"15.08837867","DECAY_DATE":null,"FILE":"3743722","SITE":"AFETR","NORAD_CAT_ID":"53246","PERIOD":"95.438","TLE_LINE2":"2 53246  53.2188 330.1780 0001901  48.9076 311.2080 15.08837867 26406","MEAN_MOTION_DOT":"-0.00000019","OBJECT_ID":"2022-086E","INCLINATION":"53.2188","ELEMENT_SET_NO":"999","EPHEMERIS_TYPE":"0","MEAN_MOTION_DDOT":"0.0000000000000","SEMIMAJOR_AXIS":"6917.887","RA_OF_ASC_NODE":"330.1780","ARG_OF_PERICENTER":"48.9076","MEAN_ANOMALY":"311.2080","MEAN_ELEMENT_THEORY":"SGP4","PERIAPSIS":"538.437","REF_FRAME":"TEME","ECCENTRICITY":"0.00019010","TIME_SYSTEM":"UTC","CENTER_NAME":"EARTH","RCS_SIZE":"LARGE"},{"COUNTRY_CODE":"US","LAUNCH_DATE":"2022-07-24","APOAPSIS":"541.202","GP_ID":"222942765","BSTAR":"-0.00008237900000","REV_AT_EPOCH":"2753","CLASSIFICATION_TYPE":"U","OBJECT_NAME":"STARLINK-4061","TLE_LINE1":"1 53247U 22086F   23013.58095546 -.00001599  00000-0 -82379-4 0  9999","OBJECT_TYPE":"PAYLOAD","MEAN_MOTION":"15.08826922","EPOCH":"2023-01-13T13:56:34.551744","DECAY_DATE":null,"FILE":"3743417","SITE":"AFETR","NORAD_CAT_ID":"53247","PERIOD":"95.438","TLE_LINE2":"2 53247  53.2161 326.6668 0002048  43.7148 316.4006 15.08826922 27539","OBJECT_ID":"2022-086F","MEAN_MOTION_DOT":"-0.00001599","INCLINATION":"53.2161","ELEMENT_SET_NO":"999","SEMIMAJOR_AXIS":"6917.920","MEAN_MOTION_DDOT":"0.0000000000000","EPHEMERIS_TYPE":"0","RA_OF_ASC_NODE":"326.6668","MEAN_ANOMALY":"316.4006","ARG_OF_PERICENTER":"43.7148","PERIAPSIS":"538.369","REF_FRAME":"TEME","MEAN_ELEMENT_THEORY":"SGP4","ECCENTRICITY":"0.00020480","TIME_SYSTEM":"UTC","CENTER_NAME":"EARTH","RCS_SIZE":"LARGE"},{"RA_OF_ASC_NODE":"325.1861","ARG_OF_PERICENTER":"81.8451","MEAN_ANOMALY":"278.2689","ELEMENT_SET_NO":"999","EPHEMERIS_TYPE":"0","SEMIMAJOR_AXIS":"6917.876","MEAN_MOTION_DDOT":"0.0000000000000","MEAN_ELEMENT_THEORY":"SGP4","PERIAPSIS":"538.838","REF_FRAME":"TEME","TIME_SYSTEM":"UTC","ECCENTRICITY":"0.00013050","RCS_SIZE":"LARGE","CENTER_NAME":"EARTH","APOAPSIS":"540.643","LAUNCH_DATE":"2022-07-24","COUNTRY_CODE":"US","CLASSIFICATION_TYPE":"U","REV_AT_EPOCH":"2758","OBJECT_NAME":"STARLINK-4135","TLE_LINE1":"1 53248U 22086G   23013.90847852  .00004997  00000-0  33178-3 0  9996","BSTAR":"0.00033178000000","GP_ID":"222976260","FILE":"3743722","DECAY_DATE":null,"SITE":"AFETR","OBJECT_TYPE":"PAYLOAD","EPOCH":"2023-01-13T21:48:12.544128","MEAN_MOTION":"15.08841556","INCLINATION":"53.2161","NORAD_CAT_ID":"53248","PERIOD":"95.437","TLE_LINE2":"2 53248  53.2161 325.1861 0001305  81.8451 278.2689 15.08841556 27581","OBJECT_ID":"2022-086G","MEAN_MOTION_DOT":"0.00004997"},{"EPHEMERIS_TYPE":"0","MEAN_MOTION_DDOT":"0.0000000000000","SEMIMAJOR_AXIS":"6917.899","ELEMENT_SET_NO":"999","ARG_OF_PERICENTER":"54.5568","MEAN_ANOMALY":"305.5619","RA_OF_ASC_NODE":"321.6299","MEAN_ELEMENT_THEORY":"SGP4","REF_FRAME":"TEME","PERIAPSIS":"538.320","ECCENTRICITY":"0.00020880","TIME_SYSTEM":"UTC","CENTER_NAME":"EARTH","RCS_SIZE":"LARGE","LAUNCH_DATE":"2022-07-24","COUNTRY_CODE":"US","APOAPSIS":"541.208","BSTAR":"0.00014709000000","GP_ID":"222944189","TLE_LINE1":"1 53249U 22086H   23013.58966039  .00002053  00000-0  14709-3 0  9990","OBJECT_NAME":"STARLINK-4128","CLASSIFICATION_TYPE":"U","REV_AT_EPOCH":"2730","EPOCH":"2023-01-13T14:09:06.657696","MEAN_MOTION":"15.08833899","OBJECT_TYPE":"PAYLOAD","SITE":"AFETR","FILE":"3743417","DECAY_DATE":null,"TLE_LINE2":"2 53249  53.2161 321.6299 0002088  54.5568 305.5619 15.08833899 27301","MEAN_MOTION_DOT":"0.00002053","PERIOD":"95.438","OBJECT_ID":"2022-086H","NORAD_CAT_ID":"53249","INCLINATION":"53.2161"},{"INCLINATION":"53.2152","TLE_LINE2":"2 53250  53.2152 323.6828 0001688  91.7436 268.3749 15.08845400 27238","OBJECT_ID":"2022-086J","PERIOD":"95.437","MEAN_MOTION_DOT":"0.00011737","NORAD_CAT_ID":"53250","SITE":"AFETR","FILE":"3743417","DECAY_DATE":null,"EPOCH":"2023-01-13T03:06:43.040448","MEAN_MOTION":"15.08845400","OBJECT_TYPE":"PAYLOAD","TLE_LINE1":"1 53250U 22086J   23013.12966482  .00011737  00000-0  75420-3 0  9990","CLASSIFICATION_TYPE":"U","REV_AT_EPOCH":"2723","OBJECT_NAME":"STARLINK-4059","BSTAR":"0.00075420000000","GP_ID":"222944426","APOAPSIS":"540.897","LAUNCH_DATE":"2022-07-24","COUNTRY_CODE":"US","RCS_SIZE":"LARGE","CENTER_NAME":"EARTH","TIME_SYSTEM":"UTC","ECCENTRICITY":"0.00016880","MEAN_ELEMENT_THEORY":"SGP4","PERIAPSIS":"538.561","REF_FRAME":"TEME","ARG_OF_PERICENTER":"91.7436","MEAN_ANOMALY":"268.3749","RA_OF_ASC_NODE":"323.6828","EPHEMERIS_TYPE":"0","MEAN_MOTION_DDOT":"0.0000000000000","SEMIMAJOR_AXIS":"6917.864","ELEMENT_SET_NO":"999"},{"MEAN_ANOMALY":"304.7690","ARG_OF_PERICENTER":"55.3454","RA_OF_ASC_NODE":"321.6489","SEMIMAJOR_AXIS":"6917.901","MEAN_MOTION_DDOT":"0.0000000000000","EPHEMERIS_TYPE":"0","ELEMENT_SET_NO":"999","PERIAPSIS":"538.651","REF_FRAME":"TEME","MEAN_ELEMENT_THEORY":"SGP4","TIME_SYSTEM":"UTC","ECCENTRICITY":"0.00016110","RCS_SIZE":"LARGE","CENTER_NAME":"EARTH","APOAPSIS":"540.880","LAUNCH_DATE":"2022-07-24","COUNTRY_CODE":"US","TLE_LINE1":"1 53251U 22086K   23013.58229971  .00008276  00000-0  53757-3 0  9999","OBJECT_NAME":"STARLINK-4129","REV_AT_EPOCH":"2710","CLASSIFICATION_TYPE":"U","GP_ID":"222948685","BSTAR":"0.00053757000000","SITE":"AFETR","DECAY_DATE":null,"FILE":"3743580","MEAN_MOTION":"15.08833278","EPOCH":"2023-01-13T13:58:30.694944","OBJECT_TYPE":"PAYLOAD","INCLINATION":"53.2160","TLE_LINE2":"2 53251  53.2160 321.6489 0001611  55.3454 304.7690 15.08833278 27107","PERIOD":"95.438","MEAN_MOTION_DOT":"0.00008276","OBJECT_ID":"2022-086K","NORAD_CAT_ID":"53251"},{"MEAN_MOTION":"15.08834511","EPOCH":"2023-01-13T14:10:29.243136","OBJECT_TYPE":"PAYLOAD","SITE":"AFETR","FILE":"3743417","DECAY_DATE":null,"PERIOD":"95.438","TLE_LINE2":"2 53252  53.2163 321.6194 0002560  38.5590 321.5585 15.08834511 27305","MEAN_MOTION_DOT":"0.00002318","OBJECT_ID":"2022-086L","NORAD_CAT_ID":"53252","INCLINATION":"53.2163","COUNTRY_CODE":"US","LAUNCH_DATE":"2022-07-24","APOAPSIS":"541.533","GP_ID":"222943479","BSTAR":"0.00016373000000","TLE_LINE1":"1 53252U 22086L   23013.59061624  .00002318  00000-0  16373-3 0  9994","OBJECT_NAME":"STARLINK-4132","CLASSIFICATION_TYPE":"U","REV_AT_EPOCH":"2730","ECCENTRICITY":"0.00025600","TIME_SYSTEM":"UTC","CENTER_NAME":"EARTH","RCS_SIZE":"LARGE","MEAN_MOTION_DDOT":"0.0000000000000","SEMIMAJOR_AXIS":"6917.897","EPHEMERIS_TYPE":"0","ELEMENT_SET_NO":"999","ARG_OF_PERICENTER":"38.5590","MEAN_ANOMALY":"321.5585","RA_OF_ASC_NODE":"321.6194","REF_FRAME":"TEME","PERIAPSIS":"537.991","MEAN_ELEMENT_THEORY":"SGP4"},{"MEAN_ELEMENT_THEORY":"SGP4","PERIAPSIS":"538.166","REF_FRAME":"TEME","ELEMENT_SET_NO":"999","EPHEMERIS_TYPE":"0","SEMIMAJOR_AXIS":"6917.871","MEAN_MOTION_DDOT":"0.0000000000000","RA_OF_ASC_NODE":"321.6627","ARG_OF_PERICENTER":"40.0641","MEAN_ANOMALY":"320.0519","CENTER_NAME":"EARTH","RCS_SIZE":"MEDIUM","ECCENTRICITY":"0.00022700","TIME_SYSTEM":"UTC","BSTAR":"0.00102440000000","GP_ID":"222943715","CLASSIFICATION_TYPE":"U","OBJECT_NAME":"STARLINK-4133","REV_AT_EPOCH":"2728","TLE_LINE1":"1 53253U 22086M   23013.57862075  .00016054  00000-0  10244-2 0  9994","COUNTRY_CODE":"US","LAUNCH_DATE":"2022-07-24","APOAPSIS":"541.306","NORAD_CAT_ID":"53253","OBJECT_ID":"2022-086M","TLE_LINE2":"2 53253  53.2171 321.6627 0002270  40.0641 320.0519 15.08843077 27284","PERIOD":"95.437","MEAN_MOTION_DOT":"0.00016054","INCLINATION":"53.2171","OBJECT_TYPE":"PAYLOAD","EPOCH":"2023-01-13T13:53:12.832800","MEAN_MOTION":"15.08843077","FILE":"3743417","DECAY_DATE":null,"SITE":"AFETR"}];
